[Satellite]
VERSION=1.1
NAME=STARLINK-1349
NICKNAME=STARLINK-1349
TLE1=1 45587U 20025BJ  20141.50001157 -.00018267  00000-0 -19380-3 0  9995
TLE2=2 45587  52.9985 262.5145 0001120 104.5443 132.0470 15.62792306  1817
STATUS=0
